"ID","Name","Description","City","Address","Latitude","Longitude","Rating (Google)","Image URL","Phone","Email","Website URL","Location Description","Services","Pricing Packages"
"1","Centroom","","Białystok","Sienkiewicza 9","53.1302999","23.1646427","","https://centroom.co/wp-content/uploads/2024/01/centroom_og.jpg","533 553 204","kontakt@centroom.co","centroom.co","","Fast WiFi; conference rooms; tea & coffee; printing services; kitchen; private desks","netto: dzień 36;90 zł; tydzień 166 zł; miesiąc 461 zł; mmożliwość wynajęcia całej przestrzeni oraz salki szkoleniowej."
"2","S42","","Białystok","Sienkiewicza 42/12","53.1336238","23.1597113","","https://s42.pl/wp-content/uploads/2024/01/s42_og.jpg","576 001 833; 85 87 77 539","info@invest-in-bialystok.pl","s42.pl","","Fast WiFi; conference rooms; tea & coffee; printing services; kitchen; private desks","netto: biurko na miesiąc 680 zł; biuro serwisowane na miesiąc 1000zł/os; salka konferencyjna 60 zł/godzina lub 300 zł/8 godzin."
"3","Warszawska 6","","Białystok","Warszawska 6","53.1310823","23.1595479","","https://warszawska6.pl/wp-content/uploads/2024/01/W6_og.jpg","85 87 77 527; 727 957 457","info@warszawska6.pl","warszawska6.pl","","Fast WiFi; conference rooms; tea & coffee; printing services; kitchen; private desks","coworking od 50 zł do 329 zł za dzień/godzinę (zależy od długości abonamentu)."
"4","BielsCoworking","","Bielsko-Biała","Podcienie 2","49.821611","19.044926","","https://bielscoworking.pl/wp-content/uploads/2024/06/biurko-dla-freelancera-bielsko-1.jpg","506 776 003","leo@bielscoworking.pl","bielscoworking.pl","","Fast WiFi; conference rooms; tea & coffee; printing services; kitchen; private desks","od 50 zł netto za dzień; 550 zł netto za biurko na wyłączność; mikrobiura od 900 zł netto; salka konferencyjna od 40 zł netto/godzina."
"5","Bulwary Coworking","","Bielsko-Biała","Straconki 122","49.8004582","19.0852856","","https://coworkingbielsko.pl/wp-content/uploads/2023/09/coworking-bielsko-6.jpg","605 650 705","coworkingbielsko@gmail.com","coworkingbielsko.pl","","Fast WiFi; conference rooms; tea & coffee; printing services; kitchen; private desks","biurko dedykowane od 625 zł netto/miesiąc."
"6","Cowork Up!","","Bielsko-Biała","Stefana Okrzei 2/227","49.8203571","19.0516083","","https://www.startuppodbeskidzie.pl/wp-content/uploads/2021/11/Coworking-Bielsko-StartUp-Podbeskidzie-3-1024x682.jpg","451 019 147","","www.startuppodbeskidzie.pl","","Fast WiFi; conference rooms; tea & coffee; printing services; kitchen; private desks","biurko od 99 zł/dzień; 349 zł/miesiąc; salka od 75 zł/godzina."
"7","Farbiarnia Space","","Bielsko-Biała","Józefa Piłsudskiego 3","49.820271","19.0505399","","https://farbiarniaspace.com/wp-content/uploads/2023/09/P8260172-HDR-scaled.jpg","600 440 704","hello@farbiarniaspace.com","farbiarniaspace.com","","Fast WiFi; conference rooms; tea & coffee; printing services; kitchen; private desks",""
"8","Chilliflex Preludium","","Bydgoszcz","Ogińskiego 2","53.1306037","18.0189776","","https://chilliflex.co/wp-content/uploads/2023/10/og-chilliflex.png","530 949 902","preludium@chilliflex.co","chilliflex.co","","Fast WiFi; conference rooms; tea & coffee; printing services; kitchen; private desks","biurko od 700 zł/netto za miesiąc."
"9","Starówka Office","","Bydgoszcz","Długa 16","53.121933","18.0004093","","https://starowkaoffice.pl/wp-content/uploads/2023/08/Starowka-Office-Bydgoszcz-biuro-wirtualne-coworking-wynajem-biur-3.jpg","(52) 321 57 85; 508 835 638; 691 896 769","biuro@starowkaoffice.pl","starowkaoffice.pl","","Fast WiFi; conference rooms; tea & coffee; printing services; kitchen; private desks",""
"10","Chilliflex Argon i Ferrum","","Gdańsk","Grunwaldzka 415; Grunwaldzka 409","54.397649","18.5723311","","https://chilliflex.co/wp-content/uploads/2023/10/og-chilliflex.png","570 368 330; 533 220 101","ferrum@chilliflex.co; argon@chilliflex.co","chilliflex.co","","Fast WiFi; conference rooms; tea & coffee; printing services; kitchen; private desks","biurko od 1000zł/netto za miesiąc; biurko dedykowane od 1500 zł/miesiąc; biuro serwisowane od 1600 zł/miesiąc; biuro wirtualne od 48 zł/miesiąc."
"11","Good Space","","Gdańsk","Małachowskiego 8/2; Grunwaldzka 26/3; Jaśkowa Dolina 11A/1A","54.3604463","18.6312394","","https://goodspace.eu/wp-content/uploads/2024/02/Good-Space-coworking-11-1024x683.webp","501 513 167","biuro@goodspace.eu","goodspace.eu","","Fast WiFi; conference rooms; tea & coffee; printing services; kitchen; private desks",""
"12","Loftmill Gdańsk","","Gdańsk","Droszyńskiego 24; Grunwaldzka 413","54.4002213","18.5758055","","https://loftmill.com/wp-content/uploads/2024/05/Coworking_Loftmill_6.jpg","","","loftmill.com","","Fast WiFi; conference rooms; tea & coffee; printing services; kitchen; private desks",""
"13","Mind dock","","Gdańsk","Porozumienia Gdańskiego 1","54.358695","18.644959","","https://minddock.pl/wp-content/uploads/2023/03/image-9-1-1.jpg","58 767 79 80","info@minddock.pl","minddock.pl","","Fast WiFi; conference rooms; tea & coffee; printing services; kitchen; private desks","biurko od 90 zł/dzień; biurko dedykowane od 229 zł/miesiąc; biuro od 1200 zł/miesiąc."
"14","O4","","Gdańsk","Grunwaldzka 472B","54.3997798","18.5716869","","https://o4.network/wp-content/uploads/2023/05/o4coworking_oliviacentre_gdansk_01.jpg","795 600 971","info@o4.network","o4.network","","Fast WiFi; conference rooms; tea & coffee; printing services; kitchen; private desks","biurko od 750 zł/miesiąc; wirtualne biuro od 90 zł/miesiąc."
"15","Property Spot","","Gdańsk","Topolowa 1/1","54.3677441","18.6327218","","https://propertyspot.pl/wp-content/uploads/2024/03/wynajem-biurek-coworking-gdansk-topolowa-01.jpg","533 755 855","czesc@propertyspot.pl","propertyspot.pl","","Fast WiFi; conference rooms; tea & coffee; printing services; kitchen; private desks","biurko od 399zł/miesiąc; salka konferencyjna od 49 zł/godzina; wirtualne biuro od 89 zł/miesiąc."
"16","Starter","","Gdańsk","Lęborska 3b","54.3911987","18.5882308","","https://inkubatorstarter.pl/wp-content/uploads/2023/12/Starter_Logotyp_Poziom_Kolor-male-1024x293.png","665 603 604","p.gollus@inkubatorstarter.pl","inkubatorstarter.pl","","Fast WiFi; conference rooms; tea & coffee; printing services; kitchen; private desks","hotdeski od 100 zł/dzień; biurko dedykowane od 800 zł netto/miesiąc."
"17","Concept Space","Primarily offers private offices, virtual office services, and mail handling; coworking available in a limited scope.","Gdynia","Górnośląski 21","54.5076096","18.5342071","","https://conceptspace.pl/wp-content/uploads/2024/06/conceptspace-Gdynia-coworking-biuro-wirtualne-sale-konferencyjne-4-1024x683.jpg","536 712 492; 58 526-53-49","kontakt@conceptspace.pl","conceptspace.pl","","Fast WiFi; conference rooms; tea & coffee; printing services; kitchen; private desks","biurko dostępne od 25zł/godzina; 75 zł/dzień; wirtualne biuro do 100 zł/miesiąc; salka konferencyjna od 45zł/godzina"
"18","Worq","","Gdynia","Świętojańska 43/23","54.5187565","18.5422442","","https://worq.pl/wp-content/uploads/2023/05/worq-coworking-gdynia-biuro-wirtualne-5-1024x683.jpg","504 436 437","biuro@worq.pl","worq.pl","","Fast WiFi; conference rooms; tea & coffee; printing services; kitchen; private desks","biurko od 20 zł/godzina; wirtualne biuro od 130 zł/miesiąc."
"19","Oto biura","","Gorzów Wielkopolski","Krótka 4","52.7300218","15.2380068","","https://otobiura.pl/wp-content/uploads/2024/02/otobiura-coworking-biuro-wirtualne-gorzow-wielkopolski-01-1024x702.jpg","607 599 777","biuro@otobiura.pl","otobiura.pl","","Fast WiFi; conference rooms; tea & coffee; printing services; kitchen; private desks","biurko od 15 zł/godzinę; gabinet od 35 zł/godzinę."
"20","17 piętro","","Katowice","Uniwersytecka 13, budynek Altus","50.2618262","19.0245325","","https://17pietro.pl/wp-content/uploads/2023/02/17pietro-biuro-wirtualne-katowice-01-1024x683.jpg","22 535 33 33","biuro@17pietro.pl","17pietro.pl","","Fast WiFi; conference rooms; tea & coffee; printing services; kitchen; private desks","wirtualne biuro – ceny od 49 zł/mies. do 199 zł/mies. Każdy pakiet obejmuje darmowy dostęp do sali konferencyjnej na spotkania biznesowe lub do pracy."
"21","City Space Katowice","","Katowice","Żelazna 2","50.2684993","19.0078509","","https://cityspace.pl/wp-content/uploads/2023/11/CitySpace_OG-1.jpg","","","cityspace.pl","","Fast WiFi; conference rooms; tea & coffee; printing services; kitchen; private desks",""
"22","Cluster Cowork Katowice","","Katowice","Dworcowa 8","50.2572593","19.0192015","","https://clusteroffices.com/wp-content/uploads/2024/02/Cluster-Cowork-biura-serwisowane-coworking-og.jpg","726 005 500","hi@clusteroffices.com","clusteroffices.com","","Fast WiFi; conference rooms; tea & coffee; printing services; kitchen; private desks","hot desk od 549 zł/miesiąc; biurko dedykowane na miesiąc 599 zł; karnety wejściowe na 10 wejść."
"23","Cluster Cowork Katowice","","Katowice","Chorzowska 6","50.2639217","19.0167477","","https://clusteroffices.com/wp-content/uploads/2024/02/Cluster-Cowork-biura-serwisowane-coworking-og.jpg","881 202 203","hi@clusteroffices.com","clusteroffices.com","","Fast WiFi; conference rooms; tea & coffee; printing services; kitchen; private desks","hot desk od 549 zł/miesiąc; biurko dedykowane na miesiąc 599 zł; karnety wejściowe na 10 wejść."
"24","Desking","","Katowice","Gliwicka 2/7","50.2590298","19.0144393","","https://desking.pl/wp-content/uploads/2023/08/desking-coworking-katowice-05.jpg","888 34 24 39","katowice@desking.pl","desking.pl","","Fast WiFi; conference rooms; tea & coffee; printing services; kitchen; private desks","biurko od 598 zł/miesiąc; biuro serwisowane od 549 zł/osoba/miesiąc."
"25","Krzywa 12","","Katowice","Krzywa 12","50.2606023","19.0265681","","https://coworking.krzywa12.pl/wp-content/uploads/2023/03/Coworking-Katowice-Krzywa-12_001-1024x683.jpg","502 666 767","coworking@krzywa12.pl","coworking.krzywa12.pl","","Fast WiFi; conference rooms; tea & coffee; printing services; kitchen; private desks","biurko od 500zł/miesiąc; salka konferencyjna 75 zł/godzina."
"26","Loftmill Katowice","","Katowice","Roździeńskiego 1","","","","https://loftmill.com/wp-content/uploads/2024/05/Coworking_Loftmill_6.jpg","","","loftmill.com","","Fast WiFi; conference rooms; tea & coffee; printing services; kitchen; private desks",""
"27","Opolska 12","","Katowice","Opolska 12","50.2633092","19.0185468","","https://opolska22.pl/wp-content/uploads/2023/03/opolska22-opal-biurowiec-katowice-02-1024x712.jpg","667 000 677","opolska22@opal.pl","opolska22.pl","","Fast WiFi; conference rooms; tea & coffee; printing services; kitchen; private desks",""
"28","Wellcome Office","","Katowice","Kościuszki 55","50.2512604","19.0107245","","https://wellcome-office.com/wp-content/uploads/2023/11/Wellcome_office_coworking_katowice_wnetrza_01.jpg","32 555 0 444","hello@wellcome-office.com","wellcome-office.com","","Fast WiFi; conference rooms; tea & coffee; printing services; kitchen; private desks","biurko 699 zł/miesiąc; biuro prywatne 1999 zł; podcast room od 75 zł/godzina."
"29","Kieleckie Inwestycje","","Kielce","","","","","","","","","","Fast WiFi; conference rooms; tea & coffee; printing services; kitchen; private desks",""
"30","BiznesLab","","Kraków","Powstania Warszawskiego 15; Olszańska 7","50.0633506","19.9563899","","https://biznes-lab.pl/wp-content/uploads/2023/04/bizneslab-coworking-krakow-01-1024x683.jpg","508 566 760; 508 566 762","biuro@biznes-lab.pl","biznes-lab.pl","","Fast WiFi; conference rooms; tea & coffee; printing services; kitchen; private desks","biurko dedykowane od 649 zł/miesiąc."
"31","Cluster Cowork Kraków","","Kraków","Przemysłowa 12; Mogliska 65; Zamoyskiego 24; Józefitów 8","50.0492072","19.9600066","","https://clusteroffices.com/wp-content/uploads/2024/02/Cluster-Cowork-biura-serwisowane-coworking-og.jpg","","","clusteroffices.com","","Fast WiFi; conference rooms; tea & coffee; printing services; kitchen; private desks",""
"32","Loftmill Kraków","","Kraków","Kurniki 9; Pokoju 28; Fabryczna 1; Królewska 65a; Jana Dekerta 24","50.0667153","19.9450113","","https://loftmill.com/wp-content/uploads/2024/05/Coworking_Loftmill_6.jpg","","","loftmill.com","","Fast WiFi; conference rooms; tea & coffee; printing services; kitchen; private desks",""
"33","Chilliflex Kraków","","Kraków","Wadowicka 7; Lindego 1c","50.0444289","19.9392234","","https://chilliflex.co/wp-content/uploads/2023/10/og-chilliflex.png","","","chilliflex.co","","Fast WiFi; conference rooms; tea & coffee; printing services; kitchen; private desks","biurko dedykowane 1200-1300 zł/miesiąc w zalezności od lokalizacji; coworking 800-850 zł/miesiąc."
"34","Mini Office","","Kraków","Cegielniana 4A/1, drugie piętro","50.0379113","19.9373486","","https://minioffice.pl/wp-content/uploads/2023/03/Mini-Office-biuro-wirtualne-Krakow-coworking-salki-konferencyjne-03.jpg","500 635 366","info@minioffice.pl","minioffice.pl","","Fast WiFi; conference rooms; tea & coffee; printing services; kitchen; private desks","wynajem biurka 500 zł netto za miesiąc; wirtualne biuro 99 zł/miesiąc."
"35","Memos work Kraków","","Kraków","Mogilska 35; Mogilska 43","50.0663335","19.965121","","https://memos.work/wp-content/uploads/2024/06/memos-og.jpg","509 043 043","info@wx-cowork.pl","memos.work","","Fast WiFi; conference rooms; tea & coffee; printing services; kitchen; private desks","hotdesk 50 zł/dzień lub 850 zł/miesiąc; biuro serwisowane od 1100 zł/miesiąc; wirtualne biuro od 50 zł/miesiąc."
"36","Studio przy Lea","","Kraków","Królewska 2/2","50.0704785","19.9247689","","https://studioprzylea.pl/wp-content/uploads/2023/07/Studio-przy-Lea-coworking-Krakow-01-1024x683.jpg","531 545 451; 794 710 709; 12 443 18 81","biuro@studioprzylea.pl","studioprzylea.pl","","Fast WiFi; conference rooms; tea & coffee; printing services; kitchen; private desks","20zł/godzina; 80 zł/dzień; abonament od 350 zł."
"37","Yolkfolk","","Kraków","Józefa Sarego 5","50.0564787","19.9419794","","https://yolkfolk.pl/static/og-yolkfolk.jpg","(12) 400 4046","hello@yolkfolk.pl","yolkfolk.pl","","Fast WiFi; conference rooms; tea & coffee; printing services; kitchen; private desks",""
"38","Loftmill Lublin","","Lublin","Kraśnicka 27","51.2403167","22.5093821","","https://loftmill.com/wp-content/uploads/2024/05/Coworking_Loftmill_6.jpg","","","loftmill.com","","Fast WiFi; conference rooms; tea & coffee; printing services; kitchen; private desks",""
"39","CoSpot","","Łódź","Zachodnia 70","51.777017","19.452596","","https://cospot.pl/wp-content/uploads/2023/03/Cospot-Lodz-biura-serwisowane-coworking-01-1024x683.jpg","537 743 333","office@cospot.pl","cospot.pl","","Fast WiFi; conference rooms; tea & coffee; printing services; kitchen; private desks",""
"40","Chilliflex Łódź","","Łódź","Kilińskiego 66","51.7665278","19.4655158","","https://chilliflex.co/wp-content/uploads/2023/10/og-chilliflex.png","","","chilliflex.co","","Fast WiFi; conference rooms; tea & coffee; printing services; kitchen; private desks",""
"41","Cityspace Łódź","","Łódź","Milionowa 3","51.7423187","19.4760698","","https://cityspace.pl/wp-content/uploads/2023/11/CitySpace_OG-1.jpg","","","cityspace.pl","","Fast WiFi; conference rooms; tea & coffee; printing services; kitchen; private desks",""
"42","Imagine","","Łódź","Piłsudskiego 85/87","51.7560292","19.4856133","","https://imagineoffices.pl/wp-content/uploads/2023/03/Imagine_biurowiec_Lodz_coworking_biura_serwisowane_Avestus_01-1024x683.jpg","","","imagineoffices.pl","","Fast WiFi; conference rooms; tea & coffee; printing services; kitchen; private desks",""
"43","Memos cowork Łódź","","Łódź","Ogrodowa 8","51.7787238","19.4504693","","https://memos.work/wp-content/uploads/2024/06/memos-og.jpg","500 667 581","lodz@wx-cowork.com","memos.work","","Fast WiFi; conference rooms; tea & coffee; printing services; kitchen; private desks",""
"44","Re_c","","Łódź","Tymienieckiego 22G","51.7486133","19.4716717","","https://re-c.pl/wp-content/uploads/2023/05/Re_C_Lodz_coworking_01-1024x683.jpg","+48 609 474 070","re_connect@sse.lodz.pl","re-c.pl","","Fast WiFi; conference rooms; tea & coffee; printing services; kitchen; private desks","hotdesk 70 zł/dzień; biurko dedykowane 1000 zł/miesiąc; podcast room od 50 zł/godzina; sala konferencyjna od 70 zł/godzina."
"45","Workplace 59","An unconventional coworking mainly for multimedia enthusiasts – 3 hours of video/photography equipment usage included in the price.","Łódź","Piotrowska 59","51.7688271","19.4581858","","https://workplace59.com/wp-content/uploads/2024/01/Workplace59-biuro-coworkingowe-lodz-11-1024x683.jpg","606 732 886","workplace59lodz@gmail.com","workplace59.com","","Fast WiFi; conference rooms; tea & coffee; printing services; kitchen; private desks",""
"46","Cowork Kuźnia","","Olsztyn","Kotańskiego 1","53.7583954","20.4696453","","https://kuzniaspoleczna.pl/wp-content/uploads/2023/07/kuznia-spoleczna-coworking-olsztyn-01-1024x683.jpg","798 719 151","jakub.dziadak@kuzniaspoleczna.pl","kuzniaspoleczna.pl","","Fast WiFi; conference rooms; tea & coffee; printing services; kitchen; private desks",""
"47","Park Naukowo-Technologiczny","","Opole","Technologiczna 2","50.6521015","17.8962789","","https://pnt.opole.pl/wp-content/uploads/2023/03/PNT-Opole-Park-Naukowo-Technologiczny-Coworking-01-1024x683.jpg","884 883 627","biuro@pnt.opole.pl","pnt.opole.pl","","Fast WiFi; conference rooms; tea & coffee; printing services; kitchen; private desks","biurko od 80 zł/tydzień do 300 zł/miesiąc."
"48","Biuro 56","","Poznań","Krysiewicza 9; 28 czerwca 1956 r. 175/4","52.4028067","16.9243411","","https://biuro56.pl/wp-content/uploads/2023/08/Biuro56-wirtualne-biuro-poznan-krysiewicza-01.jpg","514 392 942","kontakt@biuro56.pl","biuro56.pl","","Fast WiFi; conference rooms; tea & coffee; printing services; kitchen; private desks",""
"49","Biurcoo","","Poznań","27 grudnia 9/7","52.4080352","16.9288248","","https://biurcoo.pl/wp-content/uploads/2024/02/biurcoo-poznan-coworking-01-1024x683.jpg","792 07 09 15","info@biurcoo.pl","biurcoo.pl","","Fast WiFi; conference rooms; tea & coffee; printing services; kitchen; private desks","65 zł/dzień; 600zł/miesiąc; dostępne inne warianty czasowe."
"50","Biuro Inspiracje","","Poznań","Ratajczaka 26/3","52.4048589","16.9265538","","https://biuroinspiracje.pl/wp-content/uploads/2023/03/Biuro-Inspiracje-coworking-poznan-01-1024x683.jpg","669 954 333","biuro@biuroinspiracje.pl","biuroinspiracje.pl","","Fast WiFi; conference rooms; tea & coffee; printing services; kitchen; private desks","pakiety od 120 do 490 zł."
"51","Clockwork","","Poznań","Słowackiego 55/1","52.4177476","16.900825","","https://clockwork-poznan.pl/wp-content/uploads/2023/03/Clockwork-Poznan-coworking-02-1024x683.jpg","790 840 670","clockwork@link2incube.com","clockwork-poznan.pl","","Fast WiFi; conference rooms; tea & coffee; printing services; kitchen; private desks",""
"52","Coworking My Office","","Poznań","Jana Henryka Dąbrowskiego 77A","52.4125013","16.8995762","","https://coworking.nobeltower.pl/wp-content/uploads/2023/04/Coworking-Nobel-Tower-Poznan-01-1024x683.jpg","784 011 744; 61 8 425 425","coworking@nobeltower.pl","coworking.nobeltower.pl","","Fast WiFi; conference rooms; tea & coffee; printing services; kitchen; private desks","od 290 zł/miesiąc."
"53","Mundo Coworking","","Poznań","Garbary 35/9","52.4085598","16.9389164","","https://mundocoworking.pl/wp-content/uploads/2023/03/Mundo-Coworking-Poznan-01-1024x683.jpg","500 768 682","office@mundocoworking.pl","mundocoworking.pl","","Fast WiFi; conference rooms; tea & coffee; printing services; kitchen; private desks","od 40 zł/dzień; 499 zł/miesiąc; wirtualne biuro dostępne w pakiecie."
"54","Plus Jeden","","Poznań","Za Bramką 1","52.406539","16.9357969","","https://plusjeden.com/wp-content/uploads/2023/10/plus-jeden-poznan-coworking-01-1024x683.jpg","61 646 3357; 61 646 3358","plusjeden@um.poznan.pl","plusjeden.com","","Fast WiFi; conference rooms; private desks","darmowa przestrzeń bez rezerwacji."
"55","Park Idea","","Poznań","Wyspiańskiego 14/37","52.400099","16.9003531","","https://parkidea.pl/wp-content/uploads/2023/03/Park-Idea-Poznan-coworking-01-1024x683.jpg","61 222 37 02","biuro@parkidea.pl","parkidea.pl","","Fast WiFi; conference rooms; tea & coffee; printing services; kitchen; private desks","netto: 120 zł/dzień do 500 zł/miesiąc."
"56","W uszach są pegazy","","Poznań","Dąbrowskiego 7/10","52.4109038","16.9236008","","https://wuszachsapegazy.pl/wp-content/uploads/2023/09/w-uszach-sa-pegazy-coworking-poznan-01-1024x683.jpg","665 272 635","kontakt@wuszachsapegazy.pl","wuszachsapegazy.pl","","Fast WiFi; conference rooms; tea & coffee; printing services; kitchen; private desks","4x w miesiącu 199 zł; cały miesiąc 499 zł. Dodatkowo dostepne sale muzyczne"
"57","Coworking Rzeszów","","Rzeszów","Stroma 16","50.0586372","21.9826887","","https://coworkingrzeszow.pl/wp-content/uploads/2024/01/coworking-rzeszow-01-1024x683.jpg","793 902 234","info@sintraconsulting.pl","coworkingrzeszow.pl","","Fast WiFi; conference rooms; tea & coffee; printing services; kitchen; private desks","hotdesk 60 zł/dzień; biurko na miesiąc 800 zł."
"58","Day Office","","Rzeszów","Jana Welca 9/LU3","50.0301344","22.0257884","","https://dayoffice.pl/wp-content/uploads/2023/03/Day-Office-Rzeszow-coworking-01-1024x683.jpg","517 629 628","biuro@dayoffice.pl","dayoffice.pl","","Fast WiFi; conference rooms; tea & coffee; printing services; kitchen; private desks",""
"59","Kwadrat Przestrzeń Kreatywna","","Rzeszów","Słowackiego 24","50.0397099","22.0015968","","https://wbijajnakwadrat.pl/wp-content/uploads/2023/11/Kwadrat-Rzeszow-coworking-biuro-serwisowane-01-1024x683.jpg","793 592 000","biuro@wbijajnakwadrat.pl","wbijajnakwadrat.pl","","Fast WiFi; conference rooms; tea & coffee; printing services; kitchen; private desks","hotdesk 69 zł/dzień; biurko dedykowane 649 zł/miesiąc; wirtualne biuro 149 zł/miesiąc."
"60","Mindwork","","Rzeszów","3 Maja 13","50.0380579","22.0036727","","https://mindwork.pl/wp-content/uploads/2023/03/Mindwork-Rzeszow-Coworking-01-1024x683.jpg","","","mindwork.pl","","Fast WiFi; conference rooms; tea & coffee; printing services; kitchen; private desks",""
"61","Loftmill Rzeszów","","Rzeszów","Pl. Wolności 13","50.0398883","22.0005237","","https://loftmill.com/wp-content/uploads/2024/05/Coworking_Loftmill_6.jpg","","","loftmill.com","","Fast WiFi; conference rooms; tea & coffee; printing services; kitchen; private desks",""
"62","Leśna hub","","Sopot","Leśna 1","54.4460393","18.5571264","","https://lesnahub.pl/wp-content/uploads/2024/01/lesna-hub-coworking-sopot-01-1024x683.jpg","534 915 862","biuro@lesnahub.pl","lesnahub.pl","","Fast WiFi; conference rooms; tea & coffee; printing services; kitchen; private desks; event space","hotdesk 50 zł za dzień; abonament miesięczny od 778 zł; dostępne także abonamenty na 3, 6 i 12 miesięcy; ponadto sale szkoleniowe i wirtualne biuro."
"63","beIN Office Lastadia","","Szczecin","Zbożowa 4","53.4212552","14.5612184","","https://beinoffices.pl/wp-content/uploads/2023/05/BeinOffice-Szczecin-Lastadia-coworking-01-1024x683.jpg","","","beinoffices.pl","","Fast WiFi; conference rooms; tea & coffee; printing services; kitchen; private desks",""
"64","Biuro Aloha","","Szczecin","Janosika 17","53.4422328","14.5537337","","https://biuroaloha.pl/wp-content/uploads/2023/03/Biuro-Aloha-coworking-Szczecin-01-1024x683.jpg","606 925 808","pieciurek@biuroaloha.pl","biuroaloha.pl","","Fast WiFi; conference rooms; tea & coffee; printing services; kitchen; private desks","biurko 850 zł/miesiąc; najem od miesiąca; biuro serwisowane od 2000 zł/miesiąc; wirtualne biuro 100 zł/miesiąc."
"65","Combinat","","Szczecin","Papieża Jana Pawła II 42/U1","53.4342511","14.5519696","","https://combinat.org.pl/wp-content/uploads/2023/03/Combinat-Szczecin-coworking-01-1024x683.jpg","601 731 567","hello@coexist.org.pl","combinat.org.pl","","24x7 access; Fast WiFi; conference rooms; tea & coffee; printing services; kitchen; private desks","składka 495 zł/miesiąc; dostęp do biurka 24/7."
"66","Mentalna pracownia","","Szczecin","Wojska Polskiego 48","53.4335503","14.5477534","","https://mentalnapracownia.pl/wp-content/uploads/2023/10/mentalna-pracownia-szczecin-coworking-01-1024x683.jpg","663 004 166","kontakt@mentalnapracownia.pl","mentalnapracownia.pl","","Fast WiFi; conference rooms; tea & coffee; printing services; kitchen; private desks","18 zł/godzina; 80 zł/dzień; 5 dni w miesiącu 350 zł."
"67","P2 Tower Coworking","","Szczecin","Zygmunta Chmielewskiego 22","53.4146455","14.5411489","","","512 419 068; 601 497 771","biuro@pplusp.biz","","","Fast WiFi; conference rooms; tea & coffee; printing services; kitchen; private desks","hotdesk 490 zł/miesiąc; coworking 600 zł/miesiąc; coworking premium 1800 zł/miesiąc; wirtualne biuro 250 zł/miesiąc."
"68","KM Biuro Toruń","","Toruń","Rynek Staromiejski 36-38","53.0109811","18.604467","","https://kmbiurotorun.pl/wp-content/uploads/2023/03/KM-Biuro-coworking-torun-01-1024x683.jpg","662 476 493","kontakt@kmbiurotorun.pl","kmbiurotorun.pl","","Fast WiFi; conference rooms; tea & coffee; printing services; kitchen; private desks",""
"69","Toruński Inkubator Technologiczny","","Toruń","Władysława Łokietka 5","53.029422","18.637654","","https://inkubatortorun.pl/wp-content/uploads/2023/10/Torunski-Inkubator-Technologiczny-coworking-01-1024x683.jpg","730 565 600","","inkubatortorun.pl","","Fast WiFi; conference rooms; tea & coffee; printing services; kitchen; private desks","coworking od 20 zł/godzinę; biurko dedykowane od 500 zł/miesiąc."
"70","Aleje Jerozolimskie 109","","Warszawa (Warsaw)","Aleje Jerozolimskie 109","52.2264086","20.9874602","","https://alejejerozolimskie109.pl/wp-content/uploads/2023/02/Biuro-wirtualne-warszawa-02-1024x683.jpg","666 90 80 80","biuro@alejejerozolimskie109.pl","alejejerozolimskie109.pl","","Fast WiFi; conference rooms; tea & coffee; printing services; kitchen; private desks","wirtualne biuro – ceny od 49 zł/mies. do 199 zł/mies. Każdy pakiet obejmuje darmowy dostęp do sali konferencyjnej."
"71","Biurco","","Warszawa (Warsaw)","Twarda 44 (wejście od Siennej)","52.2327536","20.997769","","https://biurco.pl/wp-content/uploads/2023/03/Biurco-coworking-warszawa-01-1024x683.jpg","226 203 333","recepcja@biurco.pl","biurco.pl","","Fast WiFi; conference rooms; tea & coffee; printing services; kitchen; private desks",""
"72","Brain Embassy","","Warszawa (Warsaw)","Czackiego 15/17","52.237201","21.0157121","","https://brainembassy.pl/wp-content/uploads/2023/04/Brain-Embassy-Coworking-Warszawa-og.jpg","785 995 560","","brainembassy.pl","","24x7 access; Fast WiFi; conference rooms; tea & coffee; printing services; event space; kitchen; phone booths; parking; private desks","biurko dedykowane od 500 zł/miesiąc; dostępne także biura serwisowane (do 10 pracowników)."
"73","Brain Embassy","","Warszawa (Warsaw)","Al. Jerozolimskie 181B","52.2177353","20.9629022","","https://brainembassy.pl/wp-content/uploads/2023/04/Brain-Embassy-Coworking-Warszawa-og.jpg","785 995 560","","brainembassy.pl","","24x7 access; Fast WiFi; conference rooms; tea & coffee; printing services; event space; kitchen; phone booths; parking; private desks","biurko dedykowane od 500 zł/miesiąc; dostępne także biura serwisowane (do 10 pracowników)."
"74","Brain Embassy","","Warszawa (Warsaw)","Ul. Konstruktorska 11","52.1825939","20.9874334","","https://brainembassy.pl/wp-content/uploads/2023/04/Brain-Embassy-Coworking-Warszawa-og.jpg","785 995 560","","brainembassy.pl","","24x7 access; Fast WiFi; conference rooms; tea & coffee; printing services; event space; kitchen; phone booths; parking; private desks","biurko dedykowane od 500 zł/miesiąc; dostępne także biura serwisowane (do 10 pracowników)."
"75","Brain Embassy","","Warszawa (Warsaw)","Ul. Młynarska 8","52.2425686","20.9782764","","https://brainembassy.pl/wp-content/uploads/2023/04/Brain-Embassy-Coworking-Warszawa-og.jpg","785 995 560","","brainembassy.pl","","24x7 access; Fast WiFi; conference rooms; tea & coffee; printing services; event space; kitchen; phone booths; parking; private desks","biurko dedykowane od 500 zł/miesiąc; dostępne także biura serwisowane (do 10 pracowników)."
"76","Brain Embassy","","Warszawa (Warsaw)","Ul. Postępu 15","52.1789746","20.9905659","","https://brainembassy.pl/wp-content/uploads/2023/04/Brain-Embassy-Coworking-Warszawa-og.jpg","785 995 560","","brainembassy.pl","","24x7 access; Fast WiFi; conference rooms; tea & coffee; printing services; event space; kitchen; phone booths; parking; private desks","biurko dedykowane od 500 zł/miesiąc; dostępne także biura serwisowane (do 10 pracowników)."
"77","Brain Embassy","","Warszawa (Warsaw)","Ul. Wincentego Rzymowskiego 53","52.175562","20.9980613","","https://brainembassy.pl/wp-content/uploads/2023/04/Brain-Embassy-Coworking-Warszawa-og.jpg","785 995 560","","brainembassy.pl","","24x7 access; Fast WiFi; conference rooms; tea & coffee; printing services; event space; kitchen; phone booths; parking; private desks","biurko dedykowane od 500 zł/miesiąc; dostępne także biura serwisowane (do 10 pracowników)."
"78","Brain Embassy","","Warszawa (Warsaw)","Ul. Skierniewicka 10A","52.2376044","20.9721121","","https://brainembassy.pl/wp-content/uploads/2023/04/Brain-Embassy-Coworking-Warszawa-og.jpg","785 995 560","","brainembassy.pl","","24x7 access; Fast WiFi; conference rooms; tea & coffee; printing services; event space; kitchen; phone booths; parking; private desks","biurko dedykowane od 500 zł/miesiąc; dostępne także biura serwisowane (do 10 pracowników)."
"79","Business Lab","","Warszawa (Warsaw)","Nowy Świat 41a","52.2369642","21.0182069","","https://business-lab.pl/wp-content/uploads/2023/03/Business-Lab-Warszawa-coworking-01-1024x683.jpg","22 692 45 15","kontakt@business-lab.pl","business-lab.pl","","Fast WiFi; conference rooms; tea & coffee; printing services; kitchen; private desks","stół od 70 zł/dzień; biurko dedykowane 115 zł/dzień; możliwość wynajęcia dodatkowego monitora."
"80","City Desk","","Warszawa (Warsaw)","Aleje Jerozolimskie 101 lok.8","52.2271993","20.9912106","","https://citydesk.pl/wp-content/uploads/2023/03/CityDesk-coworking-warszawa-01-1024x683.jpg","509 00 22 33","kontakt@citydesk.pl","citydesk.pl","","Fast WiFi; conference rooms; tea & coffee; printing services; kitchen; private desks","biurko 100 zł/dzień; biurko dedykowane 800 zł/miesiąc."
"81","City Space Warszawa","","Warszawa (Warsaw)","Aleje Jerozolimskie 93","52.2283621","20.9953682","","https://cityspace.pl/wp-content/uploads/2023/11/CitySpace_OG-1.jpg","668 346 157","hello@cityspace.pl","cityspace.pl","","Fast WiFi; conference rooms; tea & coffee; printing services; kitchen; private desks",""
"82","City Space Warszawa","","Warszawa (Warsaw)","Dziekońskiego 1","52.1657535","21.039484","","https://cityspace.pl/wp-content/uploads/2023/11/CitySpace_OG-1.jpg","668 346 157","hello@cityspace.pl","cityspace.pl","","Fast WiFi; conference rooms; tea & coffee; printing services; kitchen; private desks",""
"83","City Space Warszawa","","Warszawa (Warsaw)","Konstruktorska 12","52.181579","20.988989","","https://cityspace.pl/wp-content/uploads/2023/11/CitySpace_OG-1.jpg","668 346 157","hello@cityspace.pl","cityspace.pl","","Fast WiFi; conference rooms; tea & coffee; printing services; kitchen; private desks",""
"84","City Space Warszawa","","Warszawa (Warsaw)","Puławska 2","52.2136997","21.021834","","https://cityspace.pl/wp-content/uploads/2023/11/CitySpace_OG-1.jpg","668 346 157","hello@cityspace.pl","cityspace.pl","","Fast WiFi; conference rooms; tea & coffee; printing services; kitchen; private desks",""
"85","City Space Warszawa","","Warszawa (Warsaw)","Rondo ONZ 1","52.2337106","21.0013721","","https://cityspace.pl/wp-content/uploads/2023/11/CitySpace_OG-1.jpg","668 346 157","hello@cityspace.pl","cityspace.pl","","Fast WiFi; conference rooms; tea & coffee; printing services; kitchen; private desks",""
"86","ClockWork","","Warszawa (Warsaw)","Ksawerów 3","52.1847622","21.0116739","","https://clockwork.com.pl/wp-content/uploads/2023/03/Clockwork-coworking-Warszawa-01-1024x683.jpg","507 178 379","biuro@clockwork.com.pl","clockwork.com.pl","","Fast WiFi; conference rooms; tea & coffee; printing services; kitchen; private desks","abonament od 250 zł/miesiąc."
"87","ClockWork","","Warszawa (Warsaw)","Zamiany 8 LU202","52.1465749","21.0371436","","https://clockwork.com.pl/wp-content/uploads/2023/03/Clockwork-coworking-Warszawa-01-1024x683.jpg","786 448 202","biuro@clockwork.com.pl","clockwork.com.pl","","Fast WiFi; conference rooms; tea & coffee; printing services; kitchen; private desks","abonament od 250 zł/miesiąc."
"88","Cluster Warszawa","","Warszawa (Warsaw)","Sienna 75","52.2307519","20.9937134","","https://clusteroffices.com/wp-content/uploads/2024/02/Cluster-Cowork-biura-serwisowane-coworking-og.jpg","","","clusteroffices.com","","Fast WiFi; conference rooms; tea & coffee; printing services; kitchen; private desks",""
"89","Cluster Warszawa","","Warszawa (Warsaw)","Marszałkowska 107","52.2312136","21.0101944","","https://clusteroffices.com/wp-content/uploads/2024/02/Cluster-Cowork-biura-serwisowane-coworking-og.jpg","","","clusteroffices.com","","Fast WiFi; conference rooms; tea & coffee; printing services; kitchen; private desks",""
"90","Cluster Warszawa","","Warszawa (Warsaw)","Mokotowska 1","52.2271118","21.0204772","","https://clusteroffices.com/wp-content/uploads/2024/02/Cluster-Cowork-biura-serwisowane-coworking-og.jpg","","","clusteroffices.com","","Fast WiFi; conference rooms; tea & coffee; printing services; kitchen; private desks",""
"91","Copoint","","Warszawa (Warsaw)","Niedźwiedzia 29b","52.1911033","21.0192657","","https://copoint.pl/wp-content/uploads/2023/03/copoint-warszawa-coworking-01-1024x683.jpg","228 537 265","kontakt@copoint.pl","copoint.pl","","Fast WiFi; conference rooms; tea & coffee; printing services; kitchen; private desks",""
"92","Copoint2","","Warszawa (Warsaw)","Dominikańska 21B","52.1863834","21.0220117","","https://cp2.pl/wp-content/uploads/2023/03/Copoint2-warszawa-coworking-01-1024x683.jpg","504 901 959","kontakt@cp2.pl","cp2.pl","","Fast WiFi; conference rooms; tea & coffee; printing services; kitchen; private desks","abonamenty od 250 zł/4 dni do 650 zł bez limitu wejść."
"93","iDid","","Warszawa (Warsaw)","Targowa 46 lok.5","52.252612","21.0362687","","https://idid.pl/wp-content/uploads/2023/03/iDid-coworking-warszawa-biuro-wirtualne-01-1024x683.jpg","732 55 32 31","biuro@idid.pl","idid.pl","","Fast WiFi; conference rooms; tea & coffee; printing services; kitchen; private desks","od 759 zł/miesiąc."
"94","iDid","","Warszawa (Warsaw)","Mołdawska 9","52.207835","20.9647719","","https://idid.pl/wp-content/uploads/2023/03/iDid-coworking-warszawa-biuro-wirtualne-01-1024x683.jpg","732 55 32 31","biuro@idid.pl","idid.pl","","Fast WiFi; conference rooms; tea & coffee; printing services; kitchen; private desks","od 759 zł/miesiąc."
"95","iDid","","Warszawa (Warsaw)","Jana Pawła II 80","52.2483376","20.9867041","","https://idid.pl/wp-content/uploads/2023/03/iDid-coworking-warszawa-biuro-wirtualne-01-1024x683.jpg","732 55 32 31","biuro@idid.pl","idid.pl","","Fast WiFi; conference rooms; tea & coffee; printing services; kitchen; private desks","od 759 zł/miesiąc."
"96","iDid","","Warszawa (Warsaw)","KEN 93","52.161289","21.0285201","","https://idid.pl/wp-content/uploads/2023/03/iDid-coworking-warszawa-biuro-wirtualne-01-1024x683.jpg","732 55 32 31","biuro@idid.pl","idid.pl","","Fast WiFi; conference rooms; tea & coffee; printing services; kitchen; private desks","od 759 zł/miesiąc."
"97","iDid","","Warszawa (Warsaw)","Warszawska 21A, Konstancin Jeziorna","","","","https://idid.pl/wp-content/uploads/2023/03/iDid-coworking-warszawa-biuro-wirtualne-01-1024x683.jpg","732 55 32 31","biuro@idid.pl","idid.pl","","Fast WiFi; conference rooms; tea & coffee; printing services; kitchen; private desks","od 759 zł/miesiąc."
"98","Fantastic Studio","","Warszawa (Warsaw)","Józefa Hallera 5 lok.14a","52.2672667","21.0244465","","https://fantastic-studio.com/wp-content/uploads/2023/03/Fantastic-Studio-coworking-warszawa-01-1024x683.jpg","695 767 595","info@fantastic-studio.com","fantastic-studio.com","","Fast WiFi; conference rooms; tea & coffee; printing services; kitchen; private desks","50 zł/dzień; dostępne pakiety dni; 650 zł/miesiąc bez limitu."
"99","Loftmill Warszawa","","Warszawa (Warsaw)","Marcina Kasprzaka 4","52.228925","20.965025","","https://loftmill.com/wp-content/uploads/2024/05/Coworking_Loftmill_6.jpg","735 250 906","karolina.wozniak@loftmill.com","loftmill.com","","Fast WiFi; conference rooms; tea & coffee; printing services; kitchen; private desks",""
"100","MindSpace","","Warszawa (Warsaw)","Koszykowa 61; Prosta 67","52.223818","21.0117275","","https://www.mindspace.me/wp-content/uploads/2024/05/General-OG-card-1200x630-1.jpg","22 221 8172","","mindspace.me","","24x7 access; Fast WiFi; conference rooms; tea & coffee; printing services; event space; kitchen; phone booths; parking; private desks","od 1300 zł/miesiąc."
"101","Noa Cowork","","Warszawa (Warsaw)","Jana Czeczota 31","52.1943142","21.0220975","","https://noacowork.pl/wp-content/uploads/2023/03/Noa-Cowork-Warszawa-01-1024x683.jpg","222 472 728","biuro@noacowork.pl","noacowork.pl","","Fast WiFi; conference rooms; tea & coffee; printing services; kitchen; private desks","15 zł/godzina; 80 zł/dzień; 600 zł/miesiąc."
"102","Nowy Świat 33","","Warszawa (Warsaw)","Nowy Świat 33","52.236171","21.0189772","","https://nowyswiat33.pl/wp-content/uploads/2023/02/Nowy-swiat-33-biuro-wirtualne-warszawa-01-1024x683.jpg","22 535 33 33","biuro@nowyswiat33.pl","nowyswiat33.pl","","Fast WiFi; conference rooms; tea & coffee; printing services; kitchen; private desks","wirtualne biuro – ceny od 39 zł/mies. do 199 zł/mies. Każdy pakiet obejmuje darmowy dostęp do sali konferencyjnej."
"103","Tu Lubię","","Warszawa (Warsaw)","Genewska 6","52.2618961","21.0655363","","https://tulubie.pl/wp-content/uploads/2023/03/TuLubie-Coworking-Warszawa-01-1024x683.jpg","603 922 300","biuro@tulubie.pl","tulubie.pl","","Fast WiFi; conference rooms; tea & coffee; printing services; kitchen; private desks","biurko 80 zł/dzień; abonament bez ograniczeń 800 zł/miesiąc."
"104","Work In","","Warszawa (Warsaw)","Senatorska 2","52.2444575","21.0091127","","https://workin-senatorska.pl/wp-content/uploads/2023/03/WorkIn-coworking-Warszawa-01-1024x683.jpg","512 561 724","info@working-senatorska.pl","workin-senatorska.pl","","Fast WiFi; conference rooms; tea & coffee; printing services; kitchen; private desks",""
"105","City Space Wrocław","","Wrocław","Powstańców Śląskich 9; Na Ostatnim Groszu 3; Curie Skłodowskiej 12","51.1010863","17.0273239","","https://cityspace.pl/wp-content/uploads/2023/11/CitySpace_OG-1.jpg","","","cityspace.pl","","Fast WiFi; conference rooms; tea & coffee; printing services; kitchen; private desks",""
"106","Coworking Office 12","","Wrocław","Łokietka 12c","51.1180614","17.032243","","https://co12.pl/wp-content/uploads/2023/03/co12-coworking-wroclaw-01-1024x683.jpg","500 770 550; 602 11 33 91","info@co12.pl","co12.pl","","Fast WiFi; conference rooms; tea & coffee; printing services; kitchen; private desks","biurko 40 zł/dzień; 450 zł/miesiąc; biuro serwisowane 1100 zł/miesiąc."
"107","CoWork 2gethere","","Wrocław","Sycowska 44","51.1456241","16.9577012","","https://cowork2gether.pl/wp-content/uploads/2023/03/Cowork2gether-Wroclaw-01-1024x683.jpg","+48 570 490 949","kontakt@cowork2gether.pl","cowork2gether.pl","","Fast WiFi; conference rooms; tea & coffee; printing services; kitchen; private desks","hotdesk 550 zł/miesiąc; biurko dedykowane 750 zł/miesiąc; silent working 900 zł/miesiąc; biuro serwisowane 990 zł/miesiąc."
"108","Fabryka Sensu","Offers multiple rooms for freelancers, from intimate spaces to rooms for 16 and 45 people.","Wrocław","Benedykta Polaka 21/4","51.1121539","17.0591848","","","501 474 861","biuro@fabrykasensu.pl","facebook.com/FabrykaSensu","","Fast WiFi; conference rooms; tea & coffee; printing services; kitchen; private desks",""
"109","Ideaplace","","Wrocław","Plac Solny 15","51.1093531","17.0293853","","https://ideaplace.pl/wp-content/uploads/2023/04/Ideaplace-coworking-wroclaw-01-1024x683.jpg","880 600 717","office@ideaplace.pl","ideaplace.pl","","Fast WiFi; conference rooms; tea & coffee; printing services; kitchen; private desks","hotdesk 70 zł/dzień; 850 zł/miesiąc; dla większych grup od 800 zł/dzień."
"110","L-abo","","Wrocław","Grodzka 9","51.1128399","17.0333464","","https://l-abo.com/wp-content/uploads/2023/03/Labo-Coworking-Wroclaw-01-1024x683.jpg","662 142 600","info@l-abo.com","l-abo.com","","Fast WiFi; conference rooms; tea & coffee; printing services; kitchen; private desks",""
"111","Loftmill Wrocław","","Wrocław","Sucha 2","51.097268","17.0356737","","https://loftmill.com/wp-content/uploads/2024/05/Coworking_Loftmill_6.jpg","","","loftmill.com","","Fast WiFi; conference rooms; tea & coffee; printing services; kitchen; private desks",""
"112","More Flow","","Wrocław","Hubska 52/14","51.094706","17.040131","","https://moreflow.pl/wp-content/uploads/2023/03/More-Flow-Coworking-Wroclaw-01-1024x683.jpg","48 570 002 457","kontakt@moreflow.pl","moreflow.pl","","Fast WiFi; conference rooms; tea & coffee; printing services; kitchen; private desks","biurko 70 zł/dzień; 850 zł/miesiąc; mikrobiuro 200 zł/dzień; 2200 zł/miesiąc."
"113","Office 4 you","","Wrocław","Świdnicka 12-14","51.1072229","17.0312239","","https://officeforyou.pl/wp-content/uploads/2023/03/Office4You-coworking-wroclaw-01-1024x683.jpg","510 270 207","biuro@officeforyou.pl","officeforyou.pl","","Fast WiFi; conference rooms; tea & coffee; printing services; kitchen; private desks","biurko 700 zł/miesiąc; biuro serwisowane od 2200 zł/miesiąc."
"114","Spaces Wroclavia","","Wrocław","Sucha 3","51.0975466","17.0358115","","https://www.spacesworks.com/wp-content/uploads/2019/09/Spaces-Generic-OG-Image-Light-1200x630-1.jpg","22 263 97 92","","spacesworks.com","","24x7 access; Fast WiFi; conference rooms; tea & coffee; printing services; event space; kitchen; phone booths; parking; private desks","członkostwo w coworku od 309 zł/miesiąc; własne biurko 989 zł/miesiąc."
"115","Teatralny 3","","Wrocław","Skarbowców 23a","51.0918746","16.9840736","","https://teatralny3.pl/wp-content/uploads/2023/03/Teatralny3-coworking-Wroclaw-01-1024x683.jpg","795 333 020","biuro@teatralny3.pl","teatralny3.pl","","Fast WiFi; conference rooms; tea & coffee; printing services; kitchen; private desks","hotdesk 49 zł/dzień; 699 zł/miesiąc."
"116","Work Station","","Wrocław","Skarbowców 23a","51.0918746","16.9840736","","https://workstation.com.pl/wp-content/uploads/2023/03/Workstation-coworking-wroclaw-01-1024x683.jpg","721 717 777; 607 424 444","biuro@workstation.com.pl; biuroA2@workstation.com.pl","workstation.com.pl","","Fast WiFi; conference rooms; tea & coffee; printing services; kitchen; private desks",""
"117","Twoje biuro","","Zielona Góra","Kazimierza Wielkiego 7/5","51.936169","15.5113278","","https://twbiuro.pl/wp-content/uploads/2023/03/Twoje-Biuro-coworking-zielona-gora-01-1024x683.jpg","68 412 53 55; 695 210 115","biuro@twbiuro.pl","twbiuro.pl","","Fast WiFi; conference rooms; tea & coffee; printing services; kitchen; private desks","biurko dedykowane 499 zł/miesiąc."
"118","WeWork Grzybowska 60","Fully serviced coworking space with modern private offices, hot desks, and premium amenities (barista coffee, conference rooms, phone booths).","Warszawa (Warsaw)","Grzybowska 60","52.2359949","20.9883657","4.3","","","","wework.com","Located in Browary Warszawskie complex, Wola district.","24x7 access; Fast WiFi; conference rooms; tea & coffee; printing services; event space; kitchen; phone booths; parking; private desks",""
"119","WeWork Grzybowska 62","Fully serviced coworking space with modern private offices, hot desks, and premium amenities.","Warszawa (Warsaw)","Grzybowska 62","52.2357822","20.9879678","4.3","","","","wework.com","Located in Browary Warszawskie complex, Wola district.","24x7 access; Fast WiFi; conference rooms; tea & coffee; printing services; event space; kitchen; phone booths; parking; private desks",""
"120","WeWork Mennica Legacy Tower","Fully serviced coworking space in a modern high-rise, offering private offices and collaborative areas with premium amenities.","Warszawa (Warsaw)","Prosta 20","52.2345138","20.9928346","4.3","","","","wework.com","Located in Mennica Legacy Tower, Wola financial district.","24x7 access; Fast WiFi; conference rooms; tea & coffee; printing services; event space; kitchen; phone booths; parking; private desks",""
"121","WeWork Hotel Europejski","Premium coworking space with fully furnished offices and lounges in a historic landmark location.","Warszawa (Warsaw)","Krakowskie Przedmieście 13","52.2429079","21.0149669","4.2","","","","wework.com","Located in Raffles Europejski building, Warsaw city center.","24x7 access; Fast WiFi; conference rooms; tea & coffee; printing services; event space; kitchen; phone booths; parking; private desks",""
"122","WeWork Krucza 50 (CEDET)","Modern coworking hub with creative lounges, conference rooms, and private desks in a central location.","Warszawa (Warsaw)","Krucza 50","52.2311738","21.017179","4.3","","","","wework.com","Located in CEDET building, city center (Śródmieście).","24x7 access; Fast WiFi; conference rooms; tea & coffee; printing services; event space; kitchen; phone booths; parking; private desks",""